{"fetched_at":"2026-07-15T17:47:27.406Z","source":"https://celestrak.org/NORAD/elements/gp.php?NAME=RADARSAT&FORMAT=JSON","constellation":"radarsat-2","records":[{"OBJECT_NAME":"RADARSAT-2","OBJECT_ID":"2007-061A","EPOCH":"2026-07-15T05:39:56.690784","CLASSIFICATION_TYPE":"U","MEAN_MOTION":14.29982961,"ECCENTRICITY":0.0001305,"INCLINATION":98.5777,"RA_OF_ASC_NODE":202.768,"ARG_OF_PERICENTER":83.8667,"MEAN_ANOMALY":276.2664,"EPHEMERIS_TYPE":0,"NORAD_CAT_ID":32382,"ELEMENT_SET_NO":999,"REV_AT_EPOCH":96996,"BSTAR":-0.0000050451,"MEAN_MOTION_DOT":-5.7e-7,"MEAN_MOTION_DDOT":0}]}
