RADARSAT-2              
1 32382U 07061A   26196.23607281 -.00000057  00000+0 -50451-5 0  9998
2 32382  98.5777 202.7680 0001305  83.8667 276.2664 14.29982961969968
